[ {"OBJECT_NAME": "SHIJIAN-6 01A (SJ-6 01A)", "NORAD_CAT_ID": 28413, "MEAN_MOTION": 15.16510771, "ECCENTRICITY": 0.000813, "INCLINATION": 97.598, "RA_OF_ASC_NODE": 98.916, "ARG_OF_PERICENTER": 106.4351, "MEAN_ANOMALY": 253.7775, "BSTAR": 0.00051499, "EPOCH": "2026-03-13T00:17:18"}, {"OBJECT_NAME": "SHIJIAN-6 02A (SJ-6 02A)", "NORAD_CAT_ID": 29505, "MEAN_MOTION": 15.15752173, "ECCENTRICITY": 0.0004821, "INCLINATION": 97.65, "RA_OF_ASC_NODE": 112.3783, "ARG_OF_PERICENTER": 106.3266, "MEAN_ANOMALY": 253.8497, "BSTAR": 0.00025578, "EPOCH": "2026-03-13T00:17:37"}, {"OBJECT_NAME": "SHIJIAN-6 03B (SJ-6 03B)", "NORAD_CAT_ID": 33409, "MEAN_MOTION": 15.0390167, "ECCENTRICITY": 0.0019821, "INCLINATION": 97.8672, "RA_OF_ASC_NODE": 90.2569, "ARG_OF_PERICENTER": 11.9486, "MEAN_ANOMALY": 348.2205, "BSTAR": 0.00024344, "EPOCH": "2026-03-12T23:19:30"}, {"OBJECT_NAME": "SHIJIAN-6 04A (SJ-6 04A)", "NORAD_CAT_ID": 37179, "MEAN_MOTION": 15.16697181, "ECCENTRICITY": 0.0018573, "INCLINATION": 97.8382, "RA_OF_ASC_NODE": 91.9394, "ARG_OF_PERICENTER": 192.3699, "MEAN_ANOMALY": 167.708, "BSTAR": 0.0003394, "EPOCH": "2026-03-13T00:13:55"}, {"OBJECT_NAME": "SHIJIAN-21 (SJ-21)", "NORAD_CAT_ID": 49330, "MEAN_MOTION": 1.00264174, "ECCENTRICITY": 0.0047998, "INCLINATION": 4.884, "RA_OF_ASC_NODE": 61.7158, "ARG_OF_PERICENTER": 171.42, "MEAN_ANOMALY": 20.9563, "BSTAR": 0.0, "EPOCH": "2026-03-12T21:03:15"}, {"OBJECT_NAME": "SHIJIAN-26 (SJ-26)", "NORAD_CAT_ID": 64199, "MEAN_MOTION": 15.22601859, "ECCENTRICITY": 0.0018416, "INCLINATION": 97.4606, "RA_OF_ASC_NODE": 151.1292, "ARG_OF_PERICENTER": 334.1721, "MEAN_ANOMALY": 25.8594, "BSTAR": 0.00030688, "EPOCH": "2026-03-12T22:51:36"}, {"OBJECT_NAME": "SHIJIAN-30B (SJ-30B)", "NORAD_CAT_ID": 66546, "MEAN_MOTION": 15.15341252, "ECCENTRICITY": 0.0009341, "INCLINATION": 51.7965, "RA_OF_ASC_NODE": 270.1468, "ARG_OF_PERICENTER": 305.3511, "MEAN_ANOMALY": 54.6592, "BSTAR": 0.00056793, "EPOCH": "2026-03-12T23:05:08"}, {"OBJECT_NAME": "SHIJIAN-30C (SJ-30C)", "NORAD_CAT_ID": 66547, "MEAN_MOTION": 15.15443136, "ECCENTRICITY": 0.0010148, "INCLINATION": 51.7973, "RA_OF_ASC_NODE": 270.163, "ARG_OF_PERICENTER": 296.2307, "MEAN_ANOMALY": 63.7626, "BSTAR": 0.00057546, "EPOCH": "2026-03-12T23:06:29"}, {"OBJECT_NAME": "SHIJIAN-28 (SJ-28)", "NORAD_CAT_ID": 66549, "MEAN_MOTION": 1.00270553, "ECCENTRICITY": 5.92e-05, "INCLINATION": 4.7879, "RA_OF_ASC_NODE": 273.5879, "ARG_OF_PERICENTER": 174.6023, "MEAN_ANOMALY": 150.2888, "BSTAR": 0.0, "EPOCH": "2026-03-12T20:44:51"}, {"OBJECT_NAME": "SHIJIAN-29A (SJ-29A)", "NORAD_CAT_ID": 67302, "MEAN_MOTION": 1.00273696, "ECCENTRICITY": 0.0002525, "INCLINATION": 3.1518, "RA_OF_ASC_NODE": 97.5891, "ARG_OF_PERICENTER": 312.4778, "MEAN_ANOMALY": 149.6883, "BSTAR": 0.0, "EPOCH": "2026-03-12T21:04:30"}, {"OBJECT_NAME": "SHIJIAN-29B (SJ-29B)", "NORAD_CAT_ID": 67403, "MEAN_MOTION": 1.00273209, "ECCENTRICITY": 0.0004579, "INCLINATION": 3.1517, "RA_OF_ASC_NODE": 97.5724, "ARG_OF_PERICENTER": 321.8831, "MEAN_ANOMALY": 140.3816, "BSTAR": 0.0, "EPOCH": "2026-03-12T21:04:32"}, {"OBJECT_NAME": "SHIJIAN-15 (SJ-15)", "NORAD_CAT_ID": 39210, "MEAN_MOTION": 14.71364377, "ECCENTRICITY": 0.0007579, "INCLINATION": 98.1058, "RA_OF_ASC_NODE": 75.4158, "ARG_OF_PERICENTER": 93.5199, "MEAN_ANOMALY": 266.6875, "BSTAR": 0.00017073, "EPOCH": "2026-03-13T00:11:52"}, {"OBJECT_NAME": "SHIJIAN-17 (SJ-17)", "NORAD_CAT_ID": 41838, "MEAN_MOTION": 0.99865501, "ECCENTRICITY": 0.0001148, "INCLINATION": 5.5064, "RA_OF_ASC_NODE": 73.7601, "ARG_OF_PERICENTER": 325.6027, "MEAN_ANOMALY": 47.6368, "BSTAR": 0.0, "EPOCH": "2026-03-12T17:13:52"}, {"OBJECT_NAME": "SHIJIAN-6 05A (SJ-6 05A)", "NORAD_CAT_ID": 49961, "MEAN_MOTION": 14.99103097, "ECCENTRICITY": 0.0002978, "INCLINATION": 97.401, "RA_OF_ASC_NODE": 45.247, "ARG_OF_PERICENTER": 70.3537, "MEAN_ANOMALY": 289.8008, "BSTAR": 0.00021422, "EPOCH": "2026-03-12T22:53:37"}, {"OBJECT_NAME": "YAOGAN-29", "NORAD_CAT_ID": 41038, "MEAN_MOTION": 14.8299956, "ECCENTRICITY": 0.0001655, "INCLINATION": 98.0145, "RA_OF_ASC_NODE": 100.4716, "ARG_OF_PERICENTER": 30.8872, "MEAN_ANOMALY": 329.2439, "BSTAR": 8.0414e-05, "EPOCH": "2026-03-13T00:47:43"}, {"OBJECT_NAME": "YAOGAN-3", "NORAD_CAT_ID": 32289, "MEAN_MOTION": 14.90381072, "ECCENTRICITY": 0.0001651, "INCLINATION": 97.8278, "RA_OF_ASC_NODE": 102.8032, "ARG_OF_PERICENTER": 80.3514, "MEAN_ANOMALY": 279.789, "BSTAR": 0.00019179, "EPOCH": "2026-03-12T23:58:19"}, {"OBJECT_NAME": "YAOGAN-4", "NORAD_CAT_ID": 33446, "MEAN_MOTION": 14.82989341, "ECCENTRICITY": 0.001514, "INCLINATION": 97.9247, "RA_OF_ASC_NODE": 6.0266, "ARG_OF_PERICENTER": 29.9854, "MEAN_ANOMALY": 330.2223, "BSTAR": 0.00021159, "EPOCH": "2026-03-12T18:09:00"}, {"OBJECT_NAME": "YAOGAN-7", "NORAD_CAT_ID": 36110, "MEAN_MOTION": 14.77898568, "ECCENTRICITY": 0.0024538, "INCLINATION": 98.0205, "RA_OF_ASC_NODE": 318.08, "ARG_OF_PERICENTER": 353.768, "MEAN_ANOMALY": 6.3222, "BSTAR": 0.00012852, "EPOCH": "2026-03-12T16:20:57"}, {"OBJECT_NAME": "YAOGAN-21", "NORAD_CAT_ID": 40143, "MEAN_MOTION": 15.24983491, "ECCENTRICITY": 0.0010087, "INCLINATION": 97.1616, "RA_OF_ASC_NODE": 116.4094, "ARG_OF_PERICENTER": 77.0859, "MEAN_ANOMALY": 283.1505, "BSTAR": 0.0002759, "EPOCH": "2026-03-13T00:17:13"}, {"OBJECT_NAME": "YAOGAN-10", "NORAD_CAT_ID": 36834, "MEAN_MOTION": 14.8502871, "ECCENTRICITY": 0.000157, "INCLINATION": 97.9083, "RA_OF_ASC_NODE": 96.1616, "ARG_OF_PERICENTER": 88.2711, "MEAN_ANOMALY": 355.4287, "BSTAR": 0.00026665, "EPOCH": "2026-03-13T00:18:32"}]