SHIJIAN-6 01A (SJ-6 01A)
1 28413U 04035A   26072.01201600  .00009981  00000+0  51499-3 0  9994
2 28413  97.5980  98.9160 0008130 106.4351 253.7775 15.16510771172889
SHIJIAN-6 02A (SJ-6 02A)
1 29505U 06046A   26072.01223584  .00004811  00000+0  25578-3 0  9992
2 29505  97.6500 112.3783 0004821 106.3266 253.8497 15.15752173 57696
YAOGAN-3                
1 32289U 07055A   26071.99883846  .00001811  00000+0  19179-3 0  9992
2 32289  97.8278 102.8032 0001651  80.3514 279.7890 14.90381072991531
SHIJIAN-6 03B (SJ-6 03B)
1 33409U 08053B   26071.97187559  .00003303  00000+0  24344-3 0  9990
2 33409  97.8672  90.2569 0019821  11.9486 348.2205 15.03901670948288
YAOGAN-4                
1 33446U 08061A   26071.75625447  .00001668  00000+0  21159-3 0  9992
2 33446  97.9247   6.0266 0015140  29.9854 330.2223 14.82989341931375
YAOGAN-7                
1 36110U 09069A   26071.68121920  .00000876  00000+0  12852-3 0  9991
2 36110  98.0205 318.0800 0024538 353.7680   6.3222 14.77898568875379
YAOGAN-10               
1 36834U 10038A   26072.01288123  .00002222  00000+0  26665-3 0  9993
2 36834  97.9083  96.1616 0001570  88.2711 355.4287 14.85028710842937
SHIJIAN-6 04A (SJ-6 04A)
1 37179U 10051A   26072.00967176  .00006606  00000+0  33940-3 0  9996
2 37179  97.8382  91.9394 0018573 192.3699 167.7080 15.16697181842361
SHIJIAN-15 (SJ-15)      
1 39210U 13037C   26072.00824321  .00001006  00000+0  17073-3 0  9993
2 39210  98.1058  75.4158 0007579  93.5199 266.6875 14.71364377680188
YAOGAN-21               
1 40143U 14053A   26072.01196295  .00006823  00000+0  27590-3 0  9999
2 40143  97.1616 116.4094 0010087  77.0859 283.1505 15.24983491640292
YAOGAN-29               
1 41038U 15069A   26072.03313734  .00000599  00000+0  80414-4 0  9991
2 41038  98.0145 100.4716 0001655  30.8872 329.2439 14.82999560556370
SHIJIAN-17 (SJ-17)      
1 41838U 16065A   26071.71796359  .00000054  00000+0  00000+0 0  9992
2 41838   5.5064  73.7601 0001148 325.6027  47.6368  0.99865501 34249
SHIJIAN-21 (SJ-21)      
1 49330U 21094A   26071.87726826 -.00000347  00000+0  00000+0 0  9990
2 49330   4.8840  61.7158 0047998 171.4200  20.9563  1.00264174  4391
SHIJIAN-6 05A (SJ-6 05A)
1 49961U 21122A   26071.95390160  .00002548  00000+0  21422-3 0  9998
2 49961  97.4010  45.2470 0002978  70.3537 289.8008 14.99103097234338
SHIJIAN-26 (SJ-26)      
1 64199U 25115A   26071.95250847  .00007094  00000+0  30688-3 0  9996
2 64199  97.4606 151.1292 0018416 334.1721  25.8594 15.22601859 43790
SHIJIAN-30B (SJ-30B)    
1 66546U 25266B   26071.96190205  .00010558  00000+0  56793-3 0  9997
2 66546  51.7965 270.1468 0009341 305.3511  54.6592 15.15341252 17261
SHIJIAN-30C (SJ-30C)    
1 66547U 25266C   26071.96283683  .00010736  00000+0  57546-3 0  9996
2 66547  51.7973 270.1630 0010148 296.2307  63.7626 15.15443136 17263
SHIJIAN-28 (SJ-28)      
1 66549U 25277A   26071.86448610 -.00000364  00000+0  00000+0 0  9998
2 66549   4.7879 273.5879 0000592 174.6023 150.2888  1.00270553  1182
SHIJIAN-29A (SJ-29A)    
1 67302U 25315A   26071.87812785 -.00000067  00000+0  00000+0 0  9998
2 67302   3.1518  97.5891 0002525 312.4778 149.6883  1.00273696   657
SHIJIAN-29B (SJ-29B)    
1 67403U 25315C   26071.87815859 -.00000067  00000+0  00000+0 0  9995
2 67403   3.1517  97.5724 0004579 321.8831 140.3816  1.00273209   720
